ONEWEB-0012             
1 44057U 19010A   24181.61389517  .00000026  00000+0  33788-4 0  9997
2 44057  87.9100  11.6570 0002641  79.9272 280.2157 13.16595190257140
ONEWEB-0010             
1 44058U 19010B   24181.79121316  .00000016  00000+0  79531-5 0  9994
2 44058  87.9099  11.6013 0001958  70.8225 289.3118 13.16595354257248
ONEWEB-0008             
1 44059U 19010C   24181.58855882  .00000057  00000+0  11437-3 0  9998
2 44059  87.9100  11.6430 0001778  97.3665 262.7668 13.16594919257305
ONEWEB-0007             
1 44060U 19010D   24181.58602765  .00000043  00000+0  79424-4 0  9996
2 44060  87.9036  42.0081 0002210  81.1665 278.9716 13.15549638257027
ONEWEB-0006             
1 44061U 19010E   24181.66603539 -.00000013  00000+0 -69738-4 0  9992
2 44061  87.9022  41.9745 0002079  77.8091 282.3272 13.15549991257080
ONEWEB-0011             
1 44062U 19010F   24181.55987971 -.00000130  00000+0 -38029-3 0  9994
2 44062  87.9028  41.9965 0001760  75.3663 284.7662 13.15549946257062
ONEWEB-0013             
1 45131U 20008A   24181.80645151  .00000784  00000+0  22422-2 0  9992
2 45131  87.8619 197.1016 0002941  99.7191 260.4268 13.09379947212940
ONEWEB-0017             
1 45132U 20008B   24181.54465480 -.00000129  00000+0 -40683-3 0  9994
2 45132  87.8931 178.9739 0001965  80.4338 279.7012 13.10368818214738
